{
  "norad_id": 64918,
  "name": "STARLINK-34611",
  "history": [
    {
      "epoch": "2026-03-28T20:27:34.738560Z",
      "apogee_km": 475.89062139443104,
      "perigee_km": 474.48308574138537,
      "latitude_deg": 3.2066074944501784e-05,
      "longitude_deg": 123.78639603220002,
      "height_km": 476.00554382519,
      "semi_major_axis_km": 6853.3238535679075,
      "eccentricity": 0.00010269,
      "inclination_deg": 53.1583,
      "raan_deg": 256.9481,
      "arg_perigee_deg": 83.5105,
      "mean_anomaly_deg": 276.6013,
      "mean_motion_rev_day": 15.3020945
    }
  ]
}